GLOBALSTAR M057         
1 25943U 99058A   25198.55325026 -.00000043  00000+0  45025-3 0  9993
2 25943  51.9975 262.0285 0002849  85.8612 274.2563 12.24826352170652
GLOBALSTAR M059         
1 25944U 99058B   25199.18089965 -.00000106  00000+0 -24079-3 0  9990
2 25944  52.0013 123.3249 0001074  17.5054 130.3297 11.99980036166515
GLOBALSTAR M056         
1 25945U 99058C   25198.31088728 -.00000142  00000+0 -63541-3 0  9998
2 25945  51.9957 126.8648 0000597 267.9020 242.8861 12.04781109166259
GLOBALSTAR M031         
1 25946U 99058D   25198.92679034 -.00000019  00000+0  72719-3 0  9991
2 25946  51.9980  15.6733 0000680 208.3260 304.0418 12.16038446168280
GLOBALSTAR M039         
1 25961U 99062A   25199.20355216 -.00000076  00000+0  15617-3 0  9995
2 25961  51.9823 174.2461 0002823  53.3748 306.7378 12.62330040184168
GLOBALSTAR M034         
1 25962U 99062B   25198.46277485 -.00000125  00000+0 -69987-3 0  9999
2 25962  51.9884 292.6904 0014511 100.0589 341.3201 11.79445740141965
GLOBALSTAR M029         
1 25963U 99062C   25198.94680773 -.00000078  00000+0  96907-4 0  9990
2 25963  51.9824  11.9680 0002672 160.0970   7.3656 11.99898454172815
GLOBALSTAR M061         
1 25964U 99062D   25199.23630209 -.00000120  00000+0 -64673-3 0  9996
2 25964  51.9791 115.1246 0006588  23.1785 146.1301 11.76775913125127
